GSAT0206 (GALILEO 10)   
1 40890U 15045B   26115.66468946 -.00000038  00000+0  00000+0 0  9990
2 40890  54.9612 223.0540 0002188  38.1287 321.8787  1.70473961 66145
BEIDOU-3S IGSO-2S (C56) 
1 40938U 15053A   26114.37384534 -.00000160  00000+0  00000+0 0  9995
2 40938  49.3085 259.4191 0063611 189.9313 354.4565  1.00271595 38819
GPS BIIF-11 (PRN 10)    
1 41019U 15062A   26114.92947431 -.00000091  00000+0  00000+0 0  9991
2 41019  56.9258  32.8632 0111251 231.5279 127.4763  2.00566987 76765
GSAT-15 (GAGAN/PRN 139) 
1 41028U 15065A   26115.87316801 -.00000272  00000+0  00000+0 0  9991
2 41028   0.0709 257.4869 0003675 143.1679 221.0793  1.00272202 38276
GSAT0209 (GALILEO 12)   
1 41174U 15079A   26115.24610590  .00000046  00000+0  00000+0 0  9999
2 41174  55.7962 102.7123 0005680 329.0159  30.9454  1.70474059 63873
GSAT0208 (GALILEO 11)   
1 41175U 15079B   26113.70661183  .00000044  00000+0  00000+0 0  9991
2 41175  55.7940 102.7517 0005073 330.2209  29.7424  1.70473916 64261
IRNSS-1E                
1 41241U 16003A   26111.89127155 -.00000302  00000+0  00000+0 0  9995
2 41241  33.1155  60.5610 0017245 183.4571  38.5260  1.00277854 37512
GPS BIIF-12 (PRN 32)    
1 41328U 16007A   26115.01720695  .00000037  00000+0  00000+0 0  9995
2 41328  55.4917  91.5661 0096117 247.0721 111.9007  2.00554180 74775
COSMOS 2514 (751)       
1 41330U 16008A   26115.72808955 -.00000025  00000+0  00000+0 0  9991
2 41330  65.0526 314.8070 0009480 198.2096 161.7832  2.13102627 79509
BEIDOU-2 IGSO-6 (C13)   
1 41434U 16021A   26112.85559397 -.00000169  00000+0  00000+0 0  9994
2 41434  60.1522  38.5901 0055866 232.0601 343.5038  1.00270364 36923
IRNSS-1G                
1 41469U 16027A   26115.80669240 -.00000343  00000+0  00000+0 0  9999
2 41469   5.0671  98.7046 0005880 345.3179 189.8089  1.00276241 36658
GSAT0211 (GALILEO 14)   
1 41549U 16030A   26114.41727357 -.00000030  00000+0  00000+0 0  9995
2 41549  55.1119 223.1731 0002524 359.1559   0.8397  1.70474087 61750
GSAT0210 (GALILEO 13)   
1 41550U 16030B   26115.26112392 -.00000036  00000+0  00000+0 0  9994
2 41550  55.1104 223.1480 0002811 225.6811 134.2889  1.70474037 61768
BEIDOU-2 G7 (C03)       
1 41586U 16037A   26115.80287904 -.00000365  00000+0  00000+0 0  9997
2 41586   1.5926  68.7994 0007663 354.2969 190.2079  1.00265679  6361
EUTELSAT 117 WEST B (W*)
1 41589U 16038B   26115.68654649 -.00000026  00000+0  00000+0 0  9995
2 41589   0.0104  97.9928 0000021 322.0419 283.8316  1.00271513 36136
GSAT0207 (GALILEO 15)   
1 41859U 16069A   26113.19301128  .00000042  00000+0  00000+0 0  9991
2 41859  55.4647 102.6061 0005905 316.7510  43.1935  1.70473937 58467
GSAT0212 (GALILEO 16)   
1 41860U 16069B   26114.21967367  .00000044  00000+0  00000+0 0  9992
2 41860  55.4625 102.5729 0004645 340.5096  19.4658  1.70474155 58730
